{
  "norad_id": 58702,
  "name": "TIANMU-1 17",
  "history": [
    {
      "epoch": "2026-03-28T23:08:32.915904",
      "apogee_km": 489.5029332521499,
      "perigee_km": 485.00774896288567,
      "latitude_deg": -16.026057382988704,
      "longitude_deg": 142.76990655995905,
      "semi_major_axis_km": 6865.3923411075175,
      "eccentricity": 0.00032738,
      "inclination_deg": 97.4653,
      "raan_deg": 273.9535,
      "arg_perigee_deg": 275.8806,
      "mean_anomaly_deg": 84.2059,
      "mean_motion_rev_day": 15.26176353
    },
    {
      "epoch": "2026-03-29T03:51:47.405376",
      "apogee_km": 489.4893121192126,
      "perigee_km": 485.0007253553622,
      "latitude_deg": 16.487848843124123,
      "longitude_deg": 161.65267263981514,
      "semi_major_axis_km": 6865.382018737288,
      "eccentricity": 0.0003269,
      "inclination_deg": 97.4652,
      "raan_deg": 274.15,
      "arg_perigee_deg": 274.9038,
      "mean_anomaly_deg": 85.1827,
      "mean_motion_rev_day": 15.26179795
    }
  ]
}